
    {
      "objectName": "STARLINK-35599",
      "objectId": "2025-236S",
      "noradId": 66102,
      "epochUtc": "2026-02-27T05:57:43.316064",
      "meanMotionRevPerDay": 15.30215855,
      "eccentricity": 0.00020392,
      "inclinationDeg": 53.1598,
      "raanDeg": 152.5395,
      "argPerigeeDeg": 66.858,
      "meanAnomalyDeg": 293.2636,
      "bstar": 0.00083981371,
      "meanMotionDot": 0.00024609,
      "meanMotionDdot": 0,
      "elementSetNo": 999,
      "revAtEpoch": 2128
    },
    {
      "objectName": "STARLINK-34412",
      "objectId": "2025-237U",
      "noradId": 66132,
      "epochUtc": "2026-02-27T06:04:13.942560",
      "meanMotionRevPerDay": 15.30216548,
      "eccentricity": 0.00012656,
      "inclinationDeg": 53.1598,
      "raanDeg": 88.0313,
      "argPerigeeDeg": 87.4539,
      "meanAnomalyDeg": 272.6607,
      "bstar": 0.00073511986,
      "meanMotionDot": 0.00021487,
      "meanMotionDdot": 0,
      "elementSetNo": 999,
      "revAtEpoch": 2092
    },
    {
      "objectName": "STARLINK-35624",
      "objectId": "2025-240W",
      "noradId": 66166,
      "epochUtc": "2026-02-27T04:15:42.899040",
      "meanMotionRevPerDay": 15.30223575,
      "eccentricity": 0.0001228,
      "inclinationDeg": 53.1593,
      "raanDeg": 111.297,
      "argPerigeeDeg": 88.3794,
      "meanAnomalyDeg": 271.7347,
      "bstar": 0.00091641562,
      "meanMotionDot": 0.000269,
      "meanMotionDdot": 0,
      "elementSetNo": 999,
      "revAtEpoch": 2038
    },
    {
      "objectName": "STARLINK-35543",
      "objectId": "2025-243AA",
      "noradId": 66201,
      "epochUtc": "2026-02-26T15:28:15.794400",
      "meanMotionRevPerDay": 15.30224888,
      "eccentricity": 0.0002384,
      "inclinationDeg": 53.16,
      "raanDeg": 296.49,
      "argPerigeeDeg": 80.0665,
      "meanAnomalyDeg": 280.0605,
      "bstar": 0.0011181,
      "meanMotionDot": 0.0003293,
      "meanMotionDdot": 0,
      "elementSetNo": 999,
      "revAtEpoch": 1896
    },
    {
      "objectName": "STARLINK-35753",
      "objectId": "2025-244AC",
      "noradId": 66232,
      "epochUtc": "2026-02-26T15:28:12.894816",
      "meanMotionRevPerDay": 15.30221136,
      "eccentricity": 0.0000995,
      "inclinationDeg": 53.1584,
      "raanDeg": 281.5533,
      "argPerigeeDeg": 328.6361,
      "meanAnomalyDeg": 31.4581,
      "bstar": 0.0011851,
      "meanMotionDot": 0.00034929,
      "meanMotionDdot": 0,
      "elementSetNo": 999,
      "revAtEpoch": 1996
    },
    {
      "objectName": "STARLINK-35487",
      "objectId": "2025-245AE",
      "noradId": 66262,
      "epochUtc": "2026-02-27T03:34:19.242048",
      "meanMotionRevPerDay": 15.30217077,
      "eccentricity": 0.00015108,
      "inclinationDeg": 53.1617,
      "raanDeg": 332.7831,
      "argPerigeeDeg": 64.0837,
      "meanAnomalyDeg": 296.032,
      "bstar": 0.0009027546,
      "meanMotionDot": 0.00026487,
      "meanMotionDdot": 0,
      "elementSetNo": 999,
      "revAtEpoch": 1959
    },
    {
      "objectName": "STARLINK-34616",
      "objectId": "2025-253B",
      "noradId": 66320,
      "epochUtc": "2026-02-26T23:55:26.035104",
      "meanMotionRevPerDay": 15.27611546,
      "eccentricity": 0.00022976,
      "inclinationDeg": 43.002,
      "raanDeg": 272.5093,
      "argPerigeeDeg": 268.6929,
      "meanAnomalyDeg": 91.366,
      "bstar": 0.0010501423,
      "meanMotionDot": 0.00028777,
      "meanMotionDdot": 0,
      "elementSetNo": 999,
      "revAtEpoch": 1869
    },
    {
      "objectName": "STARLINK-35829",
      "objectId": "2025-254C",
      "noradId": 66350,
      "epochUtc": "2026-02-27T00:32:03.669216",
      "meanMotionRevPerDay": 15.30228096,
      "eccentricity": 0.00021898,
      "inclinationDeg": 53.1552,
      "raanDeg": 281.9196,
      "argPerigeeDeg": 85.4243,
      "meanAnomalyDeg": 274.7008,
      "bstar": 0.0012638441,
      "meanMotionDot": 0.00037294,
      "meanMotionDdot": 0,
      "elementSetNo": 999,
      "revAtEpoch": 1734
    },
    {
      "objectName": "STARLINK-35659",
      "objectId": "2025-257F",
      "noradId": 66385,
      "epochUtc": "2026-02-26T13:44:07.793088",
      "meanMotionRevPerDay": 15.30228068,
      "eccentricity": 0.0001815,
      "inclinationDeg": 53.1597,
      "raanDeg": 268.5052,
      "argPerigeeDeg": 321.8596,
      "meanAnomalyDeg": 38.2276,
      "bstar": 0.0011526,
      "meanMotionDot": 0.00033964,
      "meanMotionDdot": 0,
      "elementSetNo": 999,
      "revAtEpoch": 1803
    },
    {
      "objectName": "STARLINK-35610",
      "objectId": "2025-259G",
      "noradId": 66428,
      "epochUtc": "2026-02-27T02:32:25.557504",
      "meanMotionRevPerDay": 15.27603599,
      "eccentricity": 0.00021538,
      "inclinationDeg": 43.0032,
      "raanDeg": 334.0308,
      "argPerigeeDeg": 259.9806,
      "meanAnomalyDeg": 100.0803,
      "bstar": 0.001158868,
      "meanMotionDot": 0.00031789,
      "meanMotionDdot": 0,
      "elementSetNo": 999,
      "revAtEpoch": 1787
    },
    {
      "objectName": "STARLINK-35463",
      "objectId": "2025-262H",
      "noradId": 66463,
      "epochUtc": "2026-02-27T03:36:52.226208",
      "meanMotionRevPerDay": 15.27584234,
      "eccentricity": 0.00013741,
      "inclinationDeg": 43.005,
      "raanDeg": 355.7782,
      "argPerigeeDeg": 280.934,
      "meanAnomalyDeg": 79.1357,
      "bstar": 0.00086190258,
      "meanMotionDot": 0.00023534,
      "meanMotionDdot": 0,
      "elementSetNo": 999,
      "revAtEpoch": 1729
    },
    {
      "objectName": "STARLINK-35597",
      "objectId": "2025-263J",
      "noradId": 66493,
      "epochUtc": "2026-02-27T06:42:48.942432",
      "meanMotionRevPerDay": 15.27580246,
      "eccentricity": 0.000142,
      "inclinationDeg": 43.0021,
      "raanDeg": 49.7614,
      "argPerigeeDeg": 249.5973,
      "meanAnomalyDeg": 110.4727,
      "bstar": 0.00091055838,
      "meanMotionDot": 0.00024879,
      "meanMotionDdot": 0,
      "elementSetNo": 999,
      "revAtEpoch": 1730
    },
    {
      "objectName": "STARLINK-35975",
      "objectId": "2025-265K",
      "noradId": 66525,
      "epochUtc": "2026-02-27T03:51:09.722016",
      "meanMotionRevPerDay": 15.27615882,
      "eccentricity": 0.00015709,
      "inclinationDeg": 43.0038,
      "raanDeg": 337.3606,
      "argPerigeeDeg": 263.9726,
      "meanAnomalyDeg": 96.0947,
      "bstar": 0.0014954829,
      "meanMotionDot": 0.00041166,
      "meanMotionDdot": 0,
      "elementSetNo": 999,
      "revAtEpoch": 1550
    },
    {
      "objectName": "STARLINK-35803",
      "objectId": "2025-268M",
      "noradId": 66568,
      "epochUtc": "2026-02-27T05:25:44.982912",
      "meanMotionRevPerDay": 15.27623324,
      "eccentricity": 0.00017648,
      "inclinationDeg": 43.0063,
      "raanDeg": 45.7981,
      "argPerigeeDeg": 296.1223,
      "meanAnomalyDeg": 63.9447,
      "bstar": 0.00081662368,
      "meanMotionDot": 0.00022307,
      "meanMotionDdot": 0,
      "elementSetNo": 999,
      "revAtEpoch": 1636
    }