STARLINK-35599          
1 66102U 25236S   26058.24841801  .00024609  00000+0  83981-3 0  9994
2 66102  53.1598 152.5395 0002039  66.8580 293.2636 15.30215855 21284
STARLINK-34412          
1 66132U 25237U   26058.25293915  .00021487  00000+0  73512-3 0  9996
2 66132  53.1598  88.0313 0001265  87.4539 272.6607 15.30216548 20922
STARLINK-35624          
1 66166U 25240W   26058.17757985  .00026900  00000+0  91642-3 0  9999
2 66166  53.1593 111.2970 0001228  88.3794 271.7347 15.30223575 20383
STARLINK-35543          
1 66201U 25243AA  26057.64462725  .00032930  00000+0  11181-2 0  9997
2 66201  53.1600 296.4900 0002384  80.0665 280.0605 15.30224888 18960
STARLINK-35753          
1 66232U 25244AC  26057.64459369  .00034929  00000+0  11851-2 0  9996
2 66232  53.1584 281.5533 0000995 328.6361  31.4581 15.30221136 19967
STARLINK-35487          
1 66262U 25245AE  26058.14883382  .00026487  00000+0  90275-3 0  9990
2 66262  53.1617 332.7831 0001510  64.0837 296.0320 15.30217077 19598
STARLINK-34616          
1 66320U 25253B   26057.99682911  .00028777  00000+0  10501-2 0  9998
2 66320  43.0020 272.5093 0002297 268.6929  91.3660 15.27611546 18695
STARLINK-35829          
1 66350U 25254C   26058.02226469  .00037294  00000+0  12638-2 0  9996
2 66350  53.1552 281.9196 0002189  85.4243 274.7008 15.30228096 17344
STARLINK-35659          
1 66385U 25257F   26057.57231242  .00033964  00000+0  11526-2 0  9996
2 66385  53.1597 268.5052 0001815 321.8596  38.2276 15.30228068 18032
STARLINK-35610          
1 66428U 25259G   26058.10585136  .00031789  00000+0  11589-2 0  9992
2 66428  43.0032 334.0308 0002153 259.9806 100.0803 15.27603599 17873
STARLINK-35463          
1 66463U 25262H   26058.15060447  .00023534  00000+0  86190-3 0  9993
2 66463  43.0050 355.7782 0001374 280.9340  79.1357 15.27584234 17299
STARLINK-35597          
1 66493U 25263J   26058.27973313  .00024879  00000+0  91056-3 0  9995
2 66493  43.0021  49.7614 0001420 249.5973 110.4727 15.27580246 17300
STARLINK-35975          
1 66525U 25265K   26058.16052919  .00041166  00000+0  14955-2 0  9991
2 66525  43.0038 337.3606 0001570 263.9726  96.0947 15.27615882 15501
STARLINK-35803          
1 66568U 25268M   26058.22621508  .00022307  00000+0  81662-3 0  9990
2 66568  43.0063  45.7981 0001764 296.1223  63.9447 15.27623324 16360
